*******************************************************************************
Ephemeris / WWW_USER Mon Mar 24 08:30:58 2025 Pasadena, USA      / Horizons    
*******************************************************************************
Target body name: (2018 WV1)                      {source: JPL#17}
Center body name: Earth (399)                     {source: DE441}
Center-site name: Mauna Kea
*******************************************************************************
Start time      : A.D. 2018-Nov-21 03:51:00.0000 UT      
Stop  time      : A.D. 2018-Nov-21 16:24:00.0000 UT      
Step-size       : 1 minutes
*******************************************************************************
Target pole/equ : undefined
Target radii    : undefined                                                    
Center geodetic : 204.5278, 19.8260847, 4.21024   {E-lon(deg),Lat(deg),Alt(km)}
Center cylindric: 204.5278, 6006.35451, 2151.0229 {E-lon(deg),Dxy(km),Dz(km)}
Center pole/equ : ITRF93                          {East-longitude positive}
Center radii    : 6378.137, 6378.137, 6356.752 km {Equator_a, b, pole_c}       
Target primary  : Sun
Vis. interferer : MOON (R_eq= 1737.400) km        {source: DE441}
Rel. light bend : Sun                             {source: DE441}
Rel. lght bnd GM: 1.3271E+11 km^3/s^2                                          
Small-body perts: Yes                             {source: SB441-N16}
Atmos refraction: NO (AIRLESS)
RA format       : HMS
Time format     : CAL 
Calendar mode   : Mixed Julian/Gregorian
RTS-only print  : NO       
EOP file        : eop.250321.p250617                                           
EOP coverage    : DATA-BASED 1962-JAN-20 TO 2025-MAR-21. PREDICTS-> 2025-JUN-16
Units conversion: 1 au= 149597870.700 km, c= 299792.458 km/s, 1 day= 86400.0 s 
Table cut-offs 1: Elevation (-90.0deg=NO ),Airmass (>38.000=NO), Daylight (YES)
Table cut-offs 2: Solar elongation (  0.0,180.0=NO ),Local Hour Angle( 0.0=NO )
Table cut-offs 3: RA/DEC angular rate (     0.0=NO )                           
*******************************************************************************
Initial IAU76/J2000 heliocentric ecliptic osculating elements (au, days, deg.):
  EPOCH=  2458458.5 ! 2018-Dec-06.00 (TDB)         Residual RMS= .12928        
   EC= .06869100257422787  QR= .9715505345748198   TP= 2458416.866413563       
   OM= 248.5061090469913   W=  141.3742304527303   IN= 1.905403987972275       
  Equivalent ICRF heliocentric cartesian coordinates (au, au/d):
   X= 2.787163119783287E-01  Y= 8.719775267121872E-01  Z= 3.748421051204766E-01
  VX=-1.676682657337402E-02 VY= 5.516972965834891E-03 VZ= 1.749720915605096E-03
Asteroid physical parameters (km, seconds, rotational period in hours):        
   GM= n.a.                RAD= n.a.               ROTPER= n.a.                
   H= 30.3                 G= .150                 B-V= n.a.                   
                           ALBEDO= n.a.            STYP= n.a.                  
*******************************************************************************
 Date__(UT)__HR:MN     R.A._________(ICRF)_________DEC
******************************************************
$$SOE
 2018-Nov-21 03:51 Cm  01 27 52.968413 +22 35 31.27400
 2018-Nov-21 03:52 Cm  01 27 52.811314 +22 35 32.41609
 2018-Nov-21 03:53 Cm  01 27 52.653406 +22 35 33.55584
 2018-Nov-21 03:54 Cm  01 27 52.494690 +22 35 34.69323
 2018-Nov-21 03:55 Cm  01 27 52.335169 +22 35 35.82826
 2018-Nov-21 03:56 Cm  01 27 52.174845 +22 35 36.96089
 2018-Nov-21 03:57 Cm  01 27 52.013719 +22 35 38.09112
 2018-Nov-21 03:58 Cm  01 27 51.851794 +22 35 39.21891
 2018-Nov-21 03:59 Cm  01 27 51.689070 +22 35 40.34426
 2018-Nov-21 04:00 Cm  01 27 51.525552 +22 35 41.46713
 2018-Nov-21 04:01 Cm  01 27 51.361239 +22 35 42.58753
 2018-Nov-21 04:02 Cm  01 27 51.196135 +22 35 43.70541
 2018-Nov-21 04:03 Cm  01 27 51.030241 +22 35 44.82078
 2018-Nov-21 04:04 Cm  01 27 50.863560 +22 35 45.93360
 2018-Nov-21 04:05 Nm  01 27 50.696093 +22 35 47.04386
 2018-Nov-21 04:06 Nm  01 27 50.527842 +22 35 48.15154
 2018-Nov-21 04:07 Nm  01 27 50.358810 +22 35 49.25663
 2018-Nov-21 04:08 Nm  01 27 50.188999 +22 35 50.35909
 2018-Nov-21 04:09 Nm  01 27 50.018411 +22 35 51.45893
 2018-Nov-21 04:10 Nm  01 27 49.847047 +22 35 52.55611
 2018-Nov-21 04:11 Nm  01 27 49.674911 +22 35 53.65061
 2018-Nov-21 04:12 Nm  01 27 49.502004 +22 35 54.74243
 2018-Nov-21 04:13 Nm  01 27 49.328329 +22 35 55.83154
 2018-Nov-21 04:14 Nm  01 27 49.153887 +22 35 56.91792
 2018-Nov-21 04:15 Nm  01 27 48.978681 +22 35 58.00155
 2018-Nov-21 04:16 Nm  01 27 48.802713 +22 35 59.08243
 2018-Nov-21 04:17 Nm  01 27 48.625985 +22 36 00.16052
 2018-Nov-21 04:18 Nm  01 27 48.448500 +22 36 01.23581
 2018-Nov-21 04:19 Nm  01 27 48.270260 +22 36 02.30829
 2018-Nov-21 04:20 Nm  01 27 48.091266 +22 36 03.37793
 2018-Nov-21 04:21 Nm  01 27 47.911523 +22 36 04.44472
 2018-Nov-21 04:22 Nm  01 27 47.731031 +22 36 05.50864
 2018-Nov-21 04:23 Nm  01 27 47.549793 +22 36 06.56967
 2018-Nov-21 04:24 Nm  01 27 47.367811 +22 36 07.62779
 2018-Nov-21 04:25 Nm  01 27 47.185089 +22 36 08.68299
 2018-Nov-21 04:26 Nm  01 27 47.001627 +22 36 09.73525
 2018-Nov-21 04:27 Nm  01 27 46.817429 +22 36 10.78455
 2018-Nov-21 04:28 Nm  01 27 46.632497 +22 36 11.83087
 2018-Nov-21 04:29 Nm  01 27 46.446833 +22 36 12.87420
 2018-Nov-21 04:30 Nm  01 27 46.260440 +22 36 13.91451
 2018-Nov-21 04:31 Nm  01 27 46.073320 +22 36 14.95180
 2018-Nov-21 04:32 Am  01 27 45.885476 +22 36 15.98604
 2018-Nov-21 04:33 Am  01 27 45.696910 +22 36 17.01722
 2018-Nov-21 04:34 Am  01 27 45.507625 +22 36 18.04532
 2018-Nov-21 04:35 Am  01 27 45.317622 +22 36 19.07032
 2018-Nov-21 04:36 Am  01 27 45.126906 +22 36 20.09221
 2018-Nov-21 04:37 Am  01 27 44.935478 +22 36 21.11096
 2018-Nov-21 04:38 Am  01 27 44.743340 +22 36 22.12657
 2018-Nov-21 04:39 Am  01 27 44.550496 +22 36 23.13901
 2018-Nov-21 04:40 Am  01 27 44.356947 +22 36 24.14827
 2018-Nov-21 04:41 Am  01 27 44.162698 +22 36 25.15433
 2018-Nov-21 04:42 Am  01 27 43.967749 +22 36 26.15717
 2018-Nov-21 04:43 Am  01 27 43.772104 +22 36 27.15678
 2018-Nov-21 04:44 Am  01 27 43.575765 +22 36 28.15315
 2018-Nov-21 04:45 Am  01 27 43.378735 +22 36 29.14624
 2018-Nov-21 04:46 Am  01 27 43.181017 +22 36 30.13606
 2018-Nov-21 04:47 Am  01 27 42.982613 +22 36 31.12258
 2018-Nov-21 04:48 Am  01 27 42.783526 +22 36 32.10578
 2018-Nov-21 04:49 Am  01 27 42.583759 +22 36 33.08565
 2018-Nov-21 04:50 Am  01 27 42.383315 +22 36 34.06218
 2018-Nov-21 04:51 Am  01 27 42.182195 +22 36 35.03534
 2018-Nov-21 04:52 Am  01 27 41.980403 +22 36 36.00512
 2018-Nov-21 04:53 Am  01 27 41.777942 +22 36 36.97151
 2018-Nov-21 04:54 Am  01 27 41.574815 +22 36 37.93448
 2018-Nov-21 04:55 Am  01 27 41.371023 +22 36 38.89403
 2018-Nov-21 04:56 Am  01 27 41.166571 +22 36 39.85014
 2018-Nov-21 04:57 Am  01 27 40.961460 +22 36 40.80278
 2018-Nov-21 04:58 Am  01 27 40.755694 +22 36 41.75195
 2018-Nov-21 04:59  m  01 27 40.549275 +22 36 42.69763
 2018-Nov-21 05:00  m  01 27 40.342207 +22 36 43.63981
 2018-Nov-21 05:01  m  01 27 40.134492 +22 36 44.57846
 2018-Nov-21 05:02  m  01 27 39.926133 +22 36 45.51358
 2018-Nov-21 05:03  m  01 27 39.717132 +22 36 46.44515
 2018-Nov-21 05:04  m  01 27 39.507494 +22 36 47.37315
 2018-Nov-21 05:05  m  01 27 39.297220 +22 36 48.29756
 2018-Nov-21 05:06  m  01 27 39.086314 +22 36 49.21838
 2018-Nov-21 05:07  m  01 27 38.874779 +22 36 50.13558
 2018-Nov-21 05:08  m  01 27 38.662617 +22 36 51.04916
 2018-Nov-21 05:09  m  01 27 38.449832 +22 36 51.95909
 2018-Nov-21 05:10  m  01 27 38.236426 +22 36 52.86537
 2018-Nov-21 05:11  m  01 27 38.022402 +22 36 53.76797
 2018-Nov-21 05:12  m  01 27 37.807764 +22 36 54.66689
 2018-Nov-21 05:13  m  01 27 37.592515 +22 36 55.56210
 2018-Nov-21 05:14  m  01 27 37.376657 +22 36 56.45360
 2018-Nov-21 05:15  m  01 27 37.160193 +22 36 57.34137
 2018-Nov-21 05:16  m  01 27 36.943128 +22 36 58.22539
 2018-Nov-21 05:17  m  01 27 36.725462 +22 36 59.10565
 2018-Nov-21 05:18  m  01 27 36.507201 +22 36 59.98213
 2018-Nov-21 05:19  m  01 27 36.288346 +22 37 00.85483
 2018-Nov-21 05:20  m  01 27 36.068902 +22 37 01.72372
 2018-Nov-21 05:21  m  01 27 35.848870 +22 37 02.58880
 2018-Nov-21 05:22  m  01 27 35.628255 +22 37 03.45004
 2018-Nov-21 05:23  m  01 27 35.407059 +22 37 04.30744
 2018-Nov-21 05:24  m  01 27 35.185285 +22 37 05.16098
 2018-Nov-21 05:25  m  01 27 34.962937 +22 37 06.01065
 2018-Nov-21 05:26  m  01 27 34.740017 +22 37 06.85643
 2018-Nov-21 05:27  m  01 27 34.516530 +22 37 07.69831
 2018-Nov-21 05:28  m  01 27 34.292478 +22 37 08.53628
 2018-Nov-21 05:29  m  01 27 34.067864 +22 37 09.37031
 2018-Nov-21 05:30  m  01 27 33.842692 +22 37 10.20041
 2018-Nov-21 05:31  m  01 27 33.616964 +22 37 11.02656
 2018-Nov-21 05:32  m  01 27 33.390685 +22 37 11.84873
 2018-Nov-21 05:33  m  01 27 33.163856 +22 37 12.66693
 2018-Nov-21 05:34  m  01 27 32.936483 +22 37 13.48113
 2018-Nov-21 05:35  m  01 27 32.708567 +22 37 14.29132
 2018-Nov-21 05:36  m  01 27 32.480112 +22 37 15.09750
 2018-Nov-21 05:37  m  01 27 32.251122 +22 37 15.89964
 2018-Nov-21 05:38  m  01 27 32.021599 +22 37 16.69773
 2018-Nov-21 05:39  m  01 27 31.791548 +22 37 17.49177
 2018-Nov-21 05:40  m  01 27 31.560970 +22 37 18.28173
 2018-Nov-21 05:41  m  01 27 31.329871 +22 37 19.06761
 2018-Nov-21 05:42  m  01 27 31.098252 +22 37 19.84939
 2018-Nov-21 05:43  m  01 27 30.866118 +22 37 20.62707
 2018-Nov-21 05:44  m  01 27 30.633472 +22 37 21.40062
 2018-Nov-21 05:45  m  01 27 30.400316 +22 37 22.17004
 2018-Nov-21 05:46  m  01 27 30.166656 +22 37 22.93532
 2018-Nov-21 05:47  m  01 27 29.932493 +22 37 23.69643
 2018-Nov-21 05:48  m  01 27 29.697831 +22 37 24.45338
 2018-Nov-21 05:49  m  01 27 29.462675 +22 37 25.20614
 2018-Nov-21 05:50  m  01 27 29.227026 +22 37 25.95471
 2018-Nov-21 05:51  m  01 27 28.990889 +22 37 26.69907
 2018-Nov-21 05:52  m  01 27 28.754267 +22 37 27.43922
 2018-Nov-21 05:53  m  01 27 28.517164 +22 37 28.17513
